GPS BIIA-23 (PRN 18)    
1 22877U 93068A   18103.53574722  .00000022  00000-0  00000+0 0  9993
2 22877  54.3846  86.1569 0141527  74.0676  82.7816  2.00564039179258
GPS BIIR-2  (PRN 13)    
1 24876U 97035A   18103.21201675 -.00000015  00000-0  00000+0 0  9994
2 24876  55.4968 215.3169 0032895  92.0447 268.3235  2.00565261151841
GPS BIIR-3  (PRN 11)    
1 25933U 99055A   18103.42982928 -.00000027  00000-0  00000+0 0  9996
2 25933  51.8457  64.5121 0165245 100.3877 341.5152  2.00568677135665
GPS BIIR-4  (PRN 20)    
1 26360U 00025A   18103.34162990  .00000063  00000-0  00000+0 0  9999
2 26360  53.1808 142.3669 0040594 111.1523 350.0754  2.00428126131353
GPS BIIR-5  (PRN 28)    
1 26407U 00040A   18103.02497920 -.00000035  00000-0  00000+0 0  9997
2 26407  56.5120 333.4415 0197805 272.8351 265.0098  2.00563709130029
GPS BIIR-6  (PRN 14)    
1 26605U 00071A   18103.46868503 -.00000012  00000-0  00000+0 0  9993
2 26605  55.0694 212.9237 0098242 248.3260 153.9178  2.00554243127634
GPS BIIR-8  (PRN 16)    
1 27663U 03005A   18103.41847034 -.00000033  00000-0  00000+0 0  9992
2 27663  56.5770 333.1809 0099131  27.3248 193.0354  2.00571024111405
GPS BIIR-9  (PRN 21)    
1 27704U 03010A   18102.86771872  .00000022  00000-0  00000+0 0  9995
2 27704  54.0538  85.7919 0247011 269.9898 233.7959  2.00556964110188
GPS BIIR-10 (PRN 22)    
1 28129U 03058A   18103.40095070  .00000060  00000-0  00000+0 0  9991
2 28129  52.9935 145.2355 0076666 269.7209  89.4857  2.00578296104890
GPS BIIR-11 (PRN 19)    
1 28190U 04009A   18102.29856831 -.00000071  00000-0  00000+0 0  9995
2 28190  56.1476  34.1000 0096091  65.5256 215.9990  2.00559912103050
GPS BIIR-12 (PRN 23)    
1 28361U 04023A   18103.46799459 -.00000010  00000-0  00000+0 0  9996
2 28361  54.0669 207.7299 0124252 224.6984  98.2484  2.00576014101157
GPS BIIR-13 (PRN 02)    
1 28474U 04045A   18103.15084193  .00000022  00000-0  00000+0 0  9995
2 28474  54.4246  85.3684 0181069 253.0909 200.7864  2.00558521 98517
GPS BIIRM-1 (PRN 17)    
1 28874U 05038A   18103.16624676 -.00000070  00000-0  00000+0 0  9993
2 28874  56.2919  31.3682 0125236 258.2101 307.8299  2.00550430 91922
GPS BIIRM-2 (PRN 31)    
1 29486U 06042A   18103.52015997 -.00000002  00000-0  00000+0 0  9994
2 29486  55.2180 270.2575 0088123 350.8916  38.0854  2.00567463 84647
GPS BIIRM-3 (PRN 12)    
1 29601U 06052A   18102.92764292 -.00000033  00000-0  00000+0 0  9990
2 29601  56.5525 332.1173 0069659  53.6306 307.0645  2.00571313 83543
GPS BIIRM-4 (PRN 15)    
1 32260U 07047A   18102.74397679 -.00000015  00000-0  00000+0 0  9991
2 32260  53.1912 203.8401 0100678  37.6718 323.0389  2.00557720 76928
GPS BIIRM-5 (PRN 29)    
1 32384U 07062A   18102.81539184 -.00000071  00000-0  00000+0 0  9994
2 32384  56.3639  31.9857 0005028  37.8061 147.9985  2.00559658 75653
GPS BIIRM-6 (PRN 07)    
1 32711U 08012A   18103.15568530 -.00000002  00000-0  00000+0 0  9993
2 32711  54.9509 269.5668 0115251 215.3851 143.8216  2.00563306 73842
GPS BIIRM-8 (PRN 05)    
1 35752U 09043A   18103.02939453  .00000059  00000-0  00000+0 0  9999
2 35752  54.3030 147.3538 0051682  32.8245 266.8172  2.00562661 63421
GPS BIIF-1  (PRN 25)    
1 36585U 10022A   18103.45448277 -.00000029  00000-0  00000+0 0  9997
2 36585  55.8459 328.7040 0072589  46.9131 301.2365  2.00565438 57683
GPS BIIF-2  (PRN 01)    
1 37753U 11036A   18103.53381914  .00000031  00000-0  00000+0 0  9996
2 37753  55.6252  88.8017 0074643  33.6592  98.9736  2.00563995 49369
GPS BIIF-3  (PRN 24)    
1 38833U 12053A   18103.33726029 -.00000006  00000-0  00000+0 0  9997
2 38833  53.9803 266.1805 0067966  29.5010 330.8523  2.00565849 40438
GPS BIIF-4  (PRN 27)    
1 39166U 13023A   18103.19314854 -.00000073  00000-0  00000+0 0  9992
2 39166  55.9910  28.2843 0057294  20.1693 340.0563  2.00563127 35961
GPS BIIF-5  (PRN 30)    
1 39533U 14008A   18103.19112197 -.00000003  00000-0  00000+0 0  9993
2 39533  54.1270 271.5268 0032543 185.1689 174.7765  2.00554207 30320
GPS BIIF-6  (PRN 06)    
1 39741U 14026A   18102.97536028  .00000031  00000-0  00000+0 0  9992
2 39741  55.6090  88.3464 0014256 290.9563  68.8987  2.00571765 28601
GPS BIIF-7  (PRN 09)    
1 40105U 14045A   18103.06769032 -.00000013  00000-0  00000+0 0  9994
2 40105  54.5923 207.8156 0008251 108.8644 251.2297  2.00566581 27051
GPS BIIF-8  (PRN 03)    
1 40294U 14068A   18103.43302566  .00000063  00000-0  00000+0 0  9998
2 40294  55.0536 148.5532 0011995  15.7384 344.3863  2.00550904 25289
GPS BIIF-9  (PRN 26)    
1 40534U 15013A   18103.07341636 -.00000031  00000-0  00000+0 0  9993
2 40534  54.7898 327.5071 0027744   0.9467 359.1099  2.00567650 22342
GPS BIIF-10  (PRN 08)   
1 40730U 15033A   18103.24069317 -.00000073  00000-0  00000+0 0  9991
2 40730  55.5221  27.8183 0035980 328.8725  30.9169  2.00578510 20104
GPS BIIF-11  (PRN 10)   
1 41019U 15062A   18102.78805962  .00000058  00000-0  00000+0 0  9998
2 41019  55.0594 148.3794 0035386 205.0981 154.8136  2.00564350 17912
GPS BIIF-12  (PRN 32)   
1 41328U 16007A   18103.37414456 -.00000010  00000-0  00000+0 0  9990
2 41328  54.8440 208.0754 0020795 215.4778 144.3893  2.00565645 15986
